{
  "norad_id": 57955,
  "name": "STARLINK-30702",
  "history": [
    {
      "epoch": "2026-03-28T20:04:17.314464",
      "apogee_km": 476.08225003260577,
      "perigee_km": 474.3498594474295,
      "latitude_deg": 5.154866978287542,
      "longitude_deg": 55.78590496000834,
      "semi_major_axis_km": 6853.353054740018,
      "eccentricity": 0.00012639,
      "inclination_deg": 53.16,
      "raan_deg": 285.2751,
      "arg_perigee_deg": 96.0139,
      "mean_anomaly_deg": 264.1006,
      "mean_motion_rev_day": 15.3019967
    }
  ]
}